{"type":"FeatureCollection","note":"San Jacinto, Pangasinan barangay boundaries. Source: PSA PSGC 2023 administrative shapefiles via faeldon/philippines-json-maps (MIT).","features":[{"type":"Feature","properties":{"name":"Awai","psgc":105534001},"geometry":{"type":"Polygon","coordinates":[[[120.483718,16.083207],[120.477096,16.082288],[120.47544,16.085636],[120.471301,16.088064],[120.470624,16.094694],[120.47973,16.097648],[120.480858,16.103819],[120.484621,16.107035],[120.487556,16.101784],[120.488986,16.095876],[120.486126,16.091675],[120.483718,16.083207]]]}},{"type":"Feature","properties":{"name":"Bagong Pag-asa","psgc":105534013},"geometry":{"type":"Polygon","coordinates":[[[120.436835,16.070538],[120.437362,16.067321],[120.432245,16.067518],[120.431116,16.070341],[120.433449,16.071325],[120.433524,16.073492],[120.434051,16.073557],[120.436835,16.070538]]]}},{"type":"Feature","properties":{"name":"Bolo","psgc":105534002},"geometry":{"type":"Polygon","coordinates":[[[120.484621,16.107035],[120.480858,16.103819],[120.472505,16.112024],[120.457906,16.110908],[120.462346,16.121542],[120.468216,16.126072],[120.483718,16.126925],[120.483793,16.124234],[120.482363,16.119376],[120.482965,16.114387],[120.484621,16.107035]]]}},{"type":"Feature","properties":{"name":"Capaoay","psgc":105534003},"geometry":{"type":"Polygon","coordinates":[[[120.444059,16.07533],[120.443909,16.072441],[120.438716,16.071194],[120.436083,16.073623],[120.441651,16.076774],[120.444059,16.07533]]]}},{"type":"Feature","properties":{"name":"Casibong","psgc":105534004},"geometry":{"type":"Polygon","coordinates":[[[120.437362,16.067321],[120.443984,16.064892],[120.446317,16.062726],[120.444135,16.060494],[120.437437,16.059313],[120.43232,16.055702],[120.428708,16.055308],[120.430664,16.060429],[120.430288,16.067518],[120.432245,16.067518],[120.437362,16.067321]]]}},{"type":"Feature","properties":{"name":"Guibal","psgc":105534006},"geometry":{"type":"Polygon","coordinates":[[[120.461593,16.069028],[120.454896,16.065024],[120.449478,16.064105],[120.446317,16.062726],[120.443984,16.064892],[120.437362,16.067321],[120.436835,16.070538],[120.438716,16.071194],[120.443909,16.072441],[120.444059,16.07533],[120.454896,16.077561],[120.455724,16.072507],[120.457906,16.071588],[120.460991,16.072179],[120.461593,16.069028]]]}},{"type":"Feature","properties":{"name":"Imelda","psgc":105534005},"geometry":{"type":"Polygon","coordinates":[[[120.456627,16.047497],[120.454971,16.044149],[120.451058,16.044346],[120.444661,16.043099],[120.443457,16.049335],[120.444737,16.052814],[120.448725,16.05498],[120.453617,16.05242],[120.456627,16.047497]]]}},{"type":"Feature","properties":{"name":"Labney","psgc":105534007},"geometry":{"type":"Polygon","coordinates":[[[120.480858,16.103819],[120.47973,16.097648],[120.470624,16.094694],[120.466109,16.092791],[120.462647,16.093841],[120.459261,16.091543],[120.455724,16.091675],[120.452488,16.093513],[120.446091,16.093972],[120.450381,16.099158],[120.454821,16.099355],[120.456551,16.100996],[120.458207,16.105394],[120.457906,16.110908],[120.472505,16.112024],[120.480858,16.103819]]]}},{"type":"Feature","properties":{"name":"Lobong","psgc":105534010},"geometry":{"type":"Polygon","coordinates":[[[120.483718,16.083207],[120.492598,16.077102],[120.48146,16.069619],[120.479579,16.073754],[120.472882,16.072901],[120.471527,16.075789],[120.466184,16.075855],[120.464002,16.070538],[120.461593,16.069028],[120.460991,16.072179],[120.457906,16.071588],[120.455724,16.072507],[120.454896,16.077561],[120.458358,16.07894],[120.457003,16.084388],[120.454068,16.088064],[120.455724,16.091675],[120.459261,16.091543],[120.462647,16.093841],[120.466109,16.092791],[120.470624,16.094694],[120.471301,16.088064],[120.47544,16.085636],[120.477096,16.082288],[120.483718,16.083207]]]}},{"type":"Feature","properties":{"name":"Macayug","psgc":105534011},"geometry":{"type":"Polygon","coordinates":[[[120.446091,16.093972],[120.44278,16.090428],[120.437287,16.088196],[120.4339,16.085898],[120.422763,16.083469],[120.420806,16.094235],[120.422988,16.097517],[120.435405,16.100799],[120.443758,16.09883],[120.446091,16.093972]]]}},{"type":"Feature","properties":{"name":"Magsaysay","psgc":105534009},"geometry":{"type":"Polygon","coordinates":[[[120.431116,16.070341],[120.429912,16.073098],[120.433524,16.073492],[120.433449,16.071325],[120.431116,16.070341]]]}},{"type":"Feature","properties":{"name":"San Guillermo","psgc":105534014},"geometry":{"type":"Polygon","coordinates":[[[120.436083,16.073623],[120.438716,16.071194],[120.436835,16.070538],[120.434051,16.073557],[120.436083,16.073623]]]}},{"type":"Feature","properties":{"name":"San Jose","psgc":105534015},"geometry":{"type":"Polygon","coordinates":[[[120.455724,16.091675],[120.454068,16.088064],[120.457003,16.084388],[120.458358,16.07894],[120.454896,16.077561],[120.444059,16.07533],[120.441651,16.076774],[120.439243,16.080384],[120.437287,16.088196],[120.44278,16.090428],[120.446091,16.093972],[120.452488,16.093513],[120.455724,16.091675]]]}},{"type":"Feature","properties":{"name":"San Juan","psgc":105534016},"geometry":{"type":"Polygon","coordinates":[[[120.48146,16.069619],[120.477397,16.066862],[120.468442,16.059706],[120.464077,16.060166],[120.454896,16.065024],[120.461593,16.069028],[120.464002,16.070538],[120.466184,16.075855],[120.471527,16.075789],[120.472882,16.072901],[120.479579,16.073754],[120.48146,16.069619]]]}},{"type":"Feature","properties":{"name":"San Roque","psgc":105534017},"geometry":{"type":"Polygon","coordinates":[[[120.448725,16.05498],[120.444737,16.052814],[120.443457,16.049335],[120.436459,16.049926],[120.427654,16.051567],[120.428708,16.055308],[120.43232,16.055702],[120.437437,16.059313],[120.444135,16.060494],[120.448725,16.05498]]]}},{"type":"Feature","properties":{"name":"San Vicente","psgc":105534018},"geometry":{"type":"Polygon","coordinates":[[[120.441651,16.076774],[120.436083,16.073623],[120.434051,16.073557],[120.433524,16.073492],[120.429912,16.073098],[120.429009,16.075461],[120.422161,16.076577],[120.422763,16.083469],[120.4339,16.085898],[120.437287,16.088196],[120.439243,16.080384],[120.441651,16.076774]]]}},{"type":"Feature","properties":{"name":"Santa Cruz","psgc":105534019},"geometry":{"type":"Polygon","coordinates":[[[120.483718,16.126925],[120.468216,16.126072],[120.470172,16.130404],[120.468743,16.135131],[120.468968,16.138413],[120.475515,16.141367],[120.482213,16.138807],[120.483342,16.135262],[120.483718,16.126925]]]}},{"type":"Feature","properties":{"name":"Santa Maria","psgc":105534020},"geometry":{"type":"Polygon","coordinates":[[[120.454896,16.065024],[120.464077,16.060166],[120.459787,16.053799],[120.459035,16.049401],[120.456627,16.047497],[120.453617,16.05242],[120.448725,16.05498],[120.444135,16.060494],[120.446317,16.062726],[120.449478,16.064105],[120.454896,16.065024]]]}},{"type":"Feature","properties":{"name":"Santo Tomas","psgc":105534021},"geometry":{"type":"Polygon","coordinates":[[[120.429912,16.073098],[120.431116,16.070341],[120.432245,16.067518],[120.430288,16.067518],[120.430137,16.069093],[120.42359,16.073426],[120.422161,16.076577],[120.429009,16.075461],[120.429912,16.073098]]]}}]}